0 COSMOS 2251 DEB
1 37494U 93036BLX 13283.23963779  .00001793  00000-0  54345-3 0  1313
2 37494 074.0018 124.1540 0118561 073.5410 287.8770 14.38977134207867
0 COSMOS 2251 DEB
1 37494U 93036BLX 13286.85473825  .00001855  00000-0  56212-3 0  1327
2 37494 073.9999 117.4707 0118159 065.5782 295.7924 14.38992073208385
0 COSMOS 2251 DEB
1 37494U 93036BLX 13289.84410917  .00001912  00000-0  57858-3 0  1334
2 37494 074.0000 111.9447 0118678 058.9354 302.3444 14.39005002208815
0 COSMOS 2251 DEB
1 37494U 93036BLX 13290.81738778  .00001978  00000-0  59835-3 0  1341
2 37494 074.0001 110.1433 0118458 055.9727 305.3007 14.39010754208952
0 COSMOS 2251 DEB
1 37494U 93036BLX 13293.18104403  .00001993  00000-0  60232-3 0  1357
2 37494 074.0005 105.7736 0119073 051.3661 309.8147 14.39020748209299
0 COSMOS 2251 DEB
1 37494U 93036BLX 13295.12757598  .00002181  00000-0  65659-3 0  1361
2 37494 073.9989 102.1748 0120847 048.9270 312.3209 14.39033834209570
